{"type": "FeatureCollection", "features": [ {"type": "Feature", "properties": {"norad_id": 31880, "name": "FENGYUN 1C DEB", "group": "fengyun-1c-debris", "lat": -48.33934205663096, "lon": 166.00909151878597, "alt_km": 1029.9248834514, "timestamp": "2025-12-17T09:00:17.432900+00:00", "meta": {"OBJECT_NAME": "FENGYUN 1C DEB", "OBJECT_ID": "1999-025CKF", "EPOCH": "2025-12-11T16:42:46.632384", "MEAN_MOTION": 13.89397693, "ECCENTRICITY": 0.01281078, "INCLINATION": 100.0286, "RA_OF_ASC_NODE": 148.4273, "ARG_OF_PERICENTER": 154.5547, "MEAN_ANOMALY": 206.199, "EPHEMERIS_TYPE": 0, "CLASSIFICATION_TYPE": "U", "NORAD_CAT_ID": 31880, "ELEMENT_SET_NO": 999, "REV_AT_EPOCH": 62965, "BSTAR": 0.00070027147, "MEAN_MOTION_DOT": 8.62e-06, "MEAN_MOTION_DDOT": 0}, "tle": {"line1": "1 31880U 99025CKF 25345.69637306  .00000862  00000+0  70027-3 0  9998", "line2": "2 31880 100.0286 148.4273 0128107 154.5547 206.1990 13.89397693629651"}}, "geometry": {"type": "Point", "coordinates": [166.00909151878597, -48.33934205663096]}}, {"type": "Feature", "properties": {"norad_id": 31882, "name": "FENGYUN 1C DEB", "group": "fengyun-1c-debris", "lat": -75.85434051445968, "lon": -47.58973291858961, "alt_km": 846.9462951960941, "timestamp": "2025-12-17T09:00:17.432911+00:00", "meta": {"OBJECT_NAME": "FENGYUN 1C DEB", "OBJECT_ID": "1999-025CKH", "EPOCH": "2025-12-04T12:04:11.131104", "MEAN_MOTION": 14.12940251, "ECCENTRICITY": 0.0035445, "INCLINATION": 98.9162, "RA_OF_ASC_NODE": 261.0675, "ARG_OF_PERICENTER": 248.9848, "MEAN_ANOMALY": 110.7531, "EPHEMERIS_TYPE": 0, "CLASSIFICATION_TYPE": "U", "NORAD_CAT_ID": 31882, "ELEMENT_SET_NO": 999, "REV_AT_EPOCH": 58520, "BSTAR": 0.0011941, "MEAN_MOTION_DOT": 2.193e-05, "MEAN_MOTION_DDOT": 0}, "tle": {"line1": "1 31882U 99025CKH 25338.50290661  .00002193  00000+0  11941-2 0  9999", "line2": "2 31882  98.9162 261.0675 0035445 248.9848 110.7531 14.12940251585207"}}, "geometry": {"type": "Point", "coordinates": [-47.58973291858961, -75.85434051445968]}}, {"type": "Feature", "properties": {"norad_id": 31883, "name": "FENGYUN 1C DEB", "group": "fengyun-1c-debris", "lat": 4.154170360706839, "lon": 89.1362369538512, "alt_km": 714.7529542001857, "timestamp": "2025-12-17T09:00:17.432921+00:00", "meta": {"OBJECT_NAME": "FENGYUN 1C DEB", "OBJECT_ID": "1999-025CKJ", "EPOCH": "2025-12-16T12:35:05.606880", "MEAN_MOTION": 14.67756843, "ECCENTRICITY": 0.01250366, "INCLINATION": 99.0282, "RA_OF_ASC_NODE": 267.5371, "ARG_OF_PERICENTER": 57.633, "MEAN_ANOMALY": 303.6902, "EPHEMERIS_TYPE": 0, "CLASSIFICATION_TYPE": "U", "NORAD_CAT_ID": 31883, "ELEMENT_SET_NO": 999, "REV_AT_EPOCH": 98034, "BSTAR": 0.00047718418, "MEAN_MOTION_DOT": 2.996e-05, "MEAN_MOTION_DDOT": 0}, "tle": {"line1": "1 31883U 99025CKJ 25350.52437045  .00002996  00000+0  47718-3 0  9998", "line2": "2 31883  99.0282 267.5371 0125036  57.6330 303.6902 14.67756843980345"}}, "geometry": {"type": "Point", "coordinates": [89.1362369538512, 4.154170360706839]}}, {"type": "Feature", "properties": {"norad_id": 31887, "name": "FENGYUN 1C DEB", "group": "fengyun-1c-debris", "lat": 29.5973969461122, "lon": -130.87513930719916, "alt_km": 714.5499050523413, "timestamp": "2025-12-17T09:00:17.432932+00:00", "meta": {"OBJECT_NAME": "FENGYUN 1C DEB", "OBJECT_ID": "1999-025CKN", "EPOCH": "2025-12-16T09:15:31.557888", "MEAN_MOTION": 14.57814269, "ECCENTRICITY": 0.0023945, "INCLINATION": 99.5347, "RA_OF_ASC_NODE": 42.5141, "ARG_OF_PERICENTER": 353.6189, "MEAN_ANOMALY": 6.4697, "EPHEMERIS_TYPE": 0, "CLASSIFICATION_TYPE": "U", "NORAD_CAT_ID": 31887, "ELEMENT_SET_NO": 999, "REV_AT_EPOCH": 96661, "BSTAR": 0.00054794217, "MEAN_MOTION_DOT": 2.458e-05, "MEAN_MOTION_DDOT": 0}, "tle": {"line1": "1 31887U 99025CKN 25350.38578192  .00002458  00000+0  54794-3 0  9990", "line2": "2 31887  99.5347  42.5141 0023945 353.6189   6.4697 14.57814269966618"}}, "geometry": {"type": "Point", "coordinates": [-130.87513930719916, 29.5973969461122]}}, {"type": "Feature", "properties": {"norad_id": 31888, "name": "FENGYUN 1C DEB", "group": "fengyun-1c-debris", "lat": 35.23247851925878, "lon": 104.58547323169356, "alt_km": 769.4572472832988, "timestamp": "2025-12-17T09:00:17.432942+00:00", "meta": {"OBJECT_NAME": "FENGYUN 1C DEB", "OBJECT_ID": "1999-025CKP", "EPOCH": "2025-12-16T15:35:15.352800", "MEAN_MOTION": 14.33976571, "ECCENTRICITY": 0.00173902, "INCLINATION": 99.153, "RA_OF_ASC_NODE": 277.2795, "ARG_OF_PERICENTER": 204.4763, "MEAN_ANOMALY": 155.5596, "EPHEMERIS_TYPE": 0, "CLASSIFICATION_TYPE": "U", "NORAD_CAT_ID": 31888, "ELEMENT_SET_NO": 999, "REV_AT_EPOCH": 95693, "BSTAR": 0.0015848594, "MEAN_MOTION_DOT": 4.384e-05, "MEAN_MOTION_DDOT": 0}, "tle": {"line1": "1 31888U 99025CKP 25350.64948325  .00004384  00000+0  15849-2 0  9996", "line2": "2 31888  99.1530 277.2795 0017390 204.4763 155.5596 14.33976571956936"}}, "geometry": {"type": "Point", "coordinates": [104.58547323169356, 35.23247851925878]}}, {"type": "Feature", "properties": {"norad_id": 31890, "name": "FENGYUN 1C DEB", "group": "fengyun-1c-debris", "lat": 31.565349276606106, "lon": -171.83716940372378, "alt_km": 848.6499415778426, "timestamp": "2025-12-17T09:00:17.432952+00:00", "meta": {"OBJECT_NAME": "FENGYUN 1C DEB", "OBJECT_ID": "1999-025CKR", "EPOCH": "2025-12-15T06:54:50.639040", "MEAN_MOTION": 14.10134037, "ECCENTRICITY": 0.00716857, "INCLINATION": 98.7188, "RA_OF_ASC_NODE": 0.7301, "ARG_OF_PERICENTER": 234.9125, "MEAN_ANOMALY": 124.531, "EPHEMERIS_TYPE": 0, "CLASSIFICATION_TYPE": "U", "NORAD_CAT_ID": 31890, "ELEMENT_SET_NO": 999, "REV_AT_EPOCH": 64188, "BSTAR": 8.7675244e-05, "MEAN_MOTION_DOT": 1.16e-06, "MEAN_MOTION_DDOT": 0}, "tle": {"line1": "1 31890U 99025CKR 25349.28808610  .00000116  00000+0  87675-4 0  9996", "line2": "2 31890  98.7188   0.7301 0071685 234.9125 124.5310 14.10134037641885"}}, "geometry": {"type": "Point", "coordinates": [-171.83716940372378, 31.565349276606106]}}, {"type": "Feature", "properties": {"norad_id": 31891, "name": "FENGYUN 1C DEB", "group": "fengyun-1c-debris", "lat": 42.54555465502441, "lon": -2.4186638410418264, "alt_km": 1109.740802904721, "timestamp": "2025-12-17T09:00:17.432962+00:00", "meta": {"OBJECT_NAME": "FENGYUN 1C DEB", "OBJECT_ID": "1999-025CKS", "EPOCH": "2025-12-16T06:25:15.362688", "MEAN_MOTION": 13.6620715, "ECCENTRICITY": 0.02250699, "INCLINATION": 99.4021, "RA_OF_ASC_NODE": 5.2523, "ARG_OF_PERICENTER": 174.2181, "MEAN_ANOMALY": 186.1643, "EPHEMERIS_TYPE": 0, "CLASSIFICATION_TYPE": "U", "NORAD_CAT_ID": 31891, "ELEMENT_SET_NO": 999, "REV_AT_EPOCH": 92458, "BSTAR": 0.00050357562, "MEAN_MOTION_DOT": 4.52e-06, "MEAN_MOTION_DDOT": 0}, "tle": {"line1": "1 31891U 99025CKS 25350.26753892  .00000452  00000+0  50358-3 0  9998", "line2": "2 31891  99.4021   5.2523 0225069 174.2181 186.1643 13.66207150924582"}}, "geometry": {"type": "Point", "coordinates": [-2.4186638410418264, 42.54555465502441]}}, {"type": "Feature", "properties": {"norad_id": 31892, "name": "FENGYUN 1C DEB", "group": "fengyun-1c-debris", "lat": 23.148934325900125, "lon": -14.448327186333062, "alt_km": 815.4140295013785, "timestamp": "2025-12-17T09:00:17.432973+00:00", "meta": {"OBJECT_NAME": "FENGYUN 1C DEB", "OBJECT_ID": "1999-025CKT", "EPOCH": "2025-12-06T17:19:53.766912", "MEAN_MOTION": 14.41156255, "ECCENTRICITY": 0.01986119, "INCLINATION": 99.2881, "RA_OF_ASC_NODE": 149.9643, "ARG_OF_PERICENTER": 304.4066, "MEAN_ANOMALY": 53.8482, "EPHEMERIS_TYPE": 0, "CLASSIFICATION_TYPE": "U", "NORAD_CAT_ID": 31892, "ELEMENT_SET_NO": 999, "REV_AT_EPOCH": 64819, "BSTAR": 0.001005312, "MEAN_MOTION_DOT": 4.04e-05, "MEAN_MOTION_DDOT": 0}, "tle": {"line1": "1 31892U 99025CKT 25340.72215008  .00004040  00000+0  10053-2 0  9995", "line2": "2 31892  99.2881 149.9643 0198611 304.4066  53.8482 14.41156255648199"}}, "geometry": {"type": "Point", "coordinates": [-14.448327186333062, 23.148934325900125]}}, {"type": "Feature", "properties": {"norad_id": 31893, "name": "FENGYUN 1C DEB", "group": "fengyun-1c-debris", "lat": -2.26647581556568, "lon": 129.7547425405413, "alt_km": 762.9367882274773, "timestamp": "2025-12-17T09:00:17.432983+00:00", "meta": {"OBJECT_NAME": "FENGYUN 1C DEB", "OBJECT_ID": "1999-025CKU", "EPOCH": "2025-12-12T15:47:49.240320", "MEAN_MOTION": 14.6375851, "ECCENTRICITY": 0.01749458, "INCLINATION": 99.0698, "RA_OF_ASC_NODE": 304.9273, "ARG_OF_PERICENTER": 327.0001, "MEAN_ANOMALY": 214.4613, "EPHEMERIS_TYPE": 0, "CLASSIFICATION_TYPE": "U", "NORAD_CAT_ID": 31893, "ELEMENT_SET_NO": 999, "REV_AT_EPOCH": 98403, "BSTAR": 0.0006699444, "MEAN_MOTION_DOT": 4.296e-05, "MEAN_MOTION_DDOT": 0}, "tle": {"line1": "1 31893U 99025CKU 25346.65820880  .00004296  00000+0  66994-3 0  9993", "line2": "2 31893  99.0698 304.9273 0174945 327.0001 214.4613 14.63758510984033"}}, "geometry": {"type": "Point", "coordinates": [129.7547425405413, -2.26647581556568]}}, {"type": "Feature", "properties": {"norad_id": 31895, "name": "FENGYUN 1C DEB", "group": "fengyun-1c-debris", "lat": 25.432892969981616, "lon": 15.696507290824016, "alt_km": 1142.4147518731988, "timestamp": "2025-12-17T09:00:17.432993+00:00", "meta": {"OBJECT_NAME": "FENGYUN 1C DEB", "OBJECT_ID": "1999-025CKW", "EPOCH": "2025-12-15T20:12:52.058016", "MEAN_MOTION": 13.75543628, "ECCENTRICITY": 0.02270644, "INCLINATION": 99.0956, "RA_OF_ASC_NODE": 18.6017, "ARG_OF_PERICENTER": 221.3655, "MEAN_ANOMALY": 137.0107, "EPHEMERIS_TYPE": 0, "CLASSIFICATION_TYPE": "U", "NORAD_CAT_ID": 31895, "ELEMENT_SET_NO": 999, "REV_AT_EPOCH": 61939, "BSTAR": 0.0018280731, "MEAN_MOTION_DOT": 2.083e-05, "MEAN_MOTION_DDOT": 0}, "tle": {"line1": "1 31895U 99025CKW 25349.84226919  .00002083  00000+0  18281-2 0  9999", "line2": "2 31895  99.0956  18.6017 0227064 221.3655 137.0107 13.75543628619395"}}, "geometry": {"type": "Point", "coordinates": [15.696507290824016, 25.432892969981616]}}]}